IRIDIUM 7               
1 24793U 97020B   25069.50027446  .00000781  00000+0  26334-3 0  9999
2 24793  86.3977 218.2136 0002347  92.2695 267.8770 14.35804373457730
IRIDIUM 5               
1 24795U 97020D   25069.56992381  .00007864  00000+0  66427-3 0  9992
2 24795  86.3906 129.1819 0113863 131.4490 229.6588 14.92952221470745
IRIDIUM 4               
1 24796U 97020E   25069.47622012  .00000751  00000+0  24819-3 0  9991
2 24796  86.3979 215.1672 0002174  96.6172 263.5273 14.36712948458292
IRIDIUM 914             
1 24836U 97030A   25069.47645860  .00000978  00000+0  30022-3 0  9997
2 24836  86.3938 224.0647 0002609 132.7453 227.3966 14.40706706592915
IRIDIUM 16              
1 24841U 97030F   25069.56678844  .00000847  00000+0  27075-3 0  9990
2 24841  86.3988 246.6918 0003700  59.4379 300.7184 14.38557166452826
IRIDIUM 911             
1 24842U 97030G   25069.54305837  .00001162  00000+0  31081-3 0  9991
2 24842  86.4414 245.5735 0016153  69.9905 290.3035 14.47425400460816
IRIDIUM 17              
1 24870U 97034B   25069.56263693  .00000708  00000+0  22917-3 0  9994
2 24870  86.3901 276.2487 0002147  43.1717 316.9649 14.37670713449412
IRIDIUM 920             
1 24871U 97034C   25069.58115535  .00000802  00000+0  24131-3 0  9993
2 24871  86.3918 255.6715 0013155  53.7406 306.5007 14.41374507452378
